NORAD_CAT_ID,OBJECT_NAME,OBJECT_TYPE,EPOCH,MEAN_MOTION,ECCENTRICITY,INCLINATION,RA_OF_ASC_NODE,ARG_OF_PERICENTER,MEAN_ANOMALY,BSTAR,MEAN_MOTION_DOT,MEAN_MOTION_DDOT,TLE_LINE0,TLE_LINE1,TLE_LINE2,SEMIMAJOR_AXIS,PERIOD,APOGEE,PERIGEE,DECAYED
53826.0,STARLINK-4756,PAYLOAD,2024-01-28 15:57:40,15.08853082,0.0001379,53.2175,165.329,89.6969,270.4181,-1.4957e-05,-5.26e-06,0.0,0 STARLINK-4756,1 53826U 22114J   24028.66505777 -.00000526  00000-0 -14957-4 0  9998,2 53826  53.2175 165.3290 0001379  89.6969 270.4181 15.08853082 75894,6917.84,95.437,540.659,538.751,0.0
53826.0,STARLINK-4756,PAYLOAD,2024-01-29 09:26:56,15.08837432,0.0001513,53.2178,162.061,92.5023,267.6143,7.7894e-05,9.52e-06,0.0,0 STARLINK-4756,1 53826U 22114J   24029.39370449  .00000952  00000-0  77894-4 0  9995,2 53826  53.2178 162.0610 0001513  92.5023 267.6143 15.08837432 76002,6917.888,95.438,540.8,538.707,0.0
53826.0,STARLINK-4756,PAYLOAD,2024-01-29 12:37:42,15.08837424,0.0001511,53.2177,161.4663,92.4547,267.6618,7.4849e-05,9.03e-06,0.0,0 STARLINK-4756,1 53826U 22114J   24029.52618474  .00000903  00000-0  74849-4 0  9996,2 53826  53.2177 161.4663 0001511  92.4547 267.6618 15.08837424 76569,6917.888,95.438,540.799,538.708,0.0
53826.0,STARLINK-4756,PAYLOAD,2024-01-30 12:28:30,15.08835046,0.0001528,53.2183,157.005,87.5668,272.5499,-4.578e-05,-1.016e-05,0.0,0 STARLINK-4756,1 53826U 22114J   24030.51979319 -.00001016  00000-0 -45780-4 0  9995,2 53826  53.2183 157.0050 0001528  87.5668 272.5499 15.08835046 76171,6917.896,95.438,540.818,538.703,0.0
53826.0,STARLINK-4756,PAYLOAD,2024-01-30 14:03:53,15.0883562,0.0001525,53.2178,156.7072,87.0112,273.1054,-3.9698e-05,-9.2e-06,0.0,0 STARLINK-4756,1 53826U 22114J   24030.58603272 -.00000920  00000-0 -39698-4 0  9998,2 53826  53.2178 156.7072 0001525  87.0112 273.1054 15.08835620 76724,6917.894,95.438,540.814,538.704,0.0
53826.0,STARLINK-4756,PAYLOAD,2024-01-30 15:39:16,15.08838058,0.0001527,53.2178,156.4093,80.5839,279.5326,-2.1482e-05,-6.3e-06,0.0,0 STARLINK-4756,1 53826U 22114J   24030.65227096 -.00000630  00000-0 -21482-4 0  9992,2 53826  53.2178 156.4093 0001527  80.5839 279.5326 15.08838058 76731,6917.886,95.438,540.808,538.695,0.0
53826.0,STARLINK-4756,PAYLOAD,2024-01-31 12:19:14,15.08857386,0.0001242,53.2173,152.544,97.8421,262.2712,0.00018747,2.698e-05,0.0,0 STARLINK-4756,1 53826U 22114J   24031.51336360  .00002698  00000-0  18747-3 0  9996,2 53826  53.2173 152.5440 0001242  97.8421 262.2712 15.08857386 76329,6917.827,95.436,540.551,538.833,0.0
53826.0,STARLINK-4756,PAYLOAD,2024-01-31 17:05:25,15.08840219,0.0001571,53.2181,151.6517,70.7172,289.399,6.2651e-05,7.09e-06,0.0,0 STARLINK-4756,1 53826U 22114J   24031.71209809  .00000709  00000-0  62651-4 0  9990,2 53826  53.2181 151.6517 0001571  70.7172 289.3990 15.08840219 76359,6917.88,95.438,540.832,538.658,0.0
53826.0,STARLINK-4756,PAYLOAD,2024-02-01 12:10:04,15.08826104,0.0001288,53.2175,148.0822,85.5322,274.5817,-6.6949e-05,-1.353e-05,0.0,0 STARLINK-4756,1 53826U 22114J   24032.50699304 -.00001353  00000-0 -66949-4 0  9993,2 53826  53.2175 148.0822 0001288  85.5322 274.5817 15.08826104 76471,6917.923,95.438,540.679,538.897,0.0
53826.0,STARLINK-4756,PAYLOAD,2024-02-02 12:00:50,15.08831168,0.0001609,53.2152,143.6225,78.6144,281.5029,6.224e-05,7.02e-06,0.0,0 STARLINK-4756,1 53826U 22114J   24033.50058438  .00000702  00000-0  62240-4 0  9996,2 53826  53.2152 143.6225 0001609  78.6144 281.5029 15.08831168 76622,6917.907,95.438,540.885,538.659,0.0
53826.0,STARLINK-4756,PAYLOAD,2024-02-02 13:36:13,15.08832212,0.0001648,53.2169,143.3263,71.5137,288.6034,6.6167e-05,7.65e-06,0.0,0 STARLINK-4756,1 53826U 22114J   24033.56682476  .00000765  00000-0  66167-4 0  9998,2 53826  53.2169 143.3263 0001648  71.5137 288.6034 15.08832212 77172,6917.904,95.438,540.909,538.629,0.0
53826.0,STARLINK-4756,PAYLOAD,2024-02-03 13:27:01,15.08833499,0.0001392,53.2176,138.8668,94.2664,265.8488,3.8974e-05,3.32e-06,0.0,0 STARLINK-4756,1 53826U 22114J   24034.56042927  .00000332  00000-0  38974-4 0  9995,2 53826  53.2176 138.8668 0001392  94.2664 265.8488 15.08833499 77326,6917.9,95.438,540.728,538.802,0.0
53826.0,STARLINK-4756,PAYLOAD,2024-02-03 16:37:47,15.08836415,0.0001309,53.2167,138.2703,93.7467,266.3675,6.6439e-05,7.7e-06,0.0,0 STARLINK-4756,1 53826U 22114J   24034.69290661  .00000770  00000-0  66439-4 0  9992,2 53826  53.2167 138.2703 0001309  93.7467 266.3675 15.08836415 76800,6917.891,95.438,540.662,538.851,0.0
53826.0,STARLINK-4756,PAYLOAD,2024-02-04 13:17:47,15.08842843,0.0001385,53.2166,134.4036,98.3162,261.7987,6.9567e-05,8.19e-06,0.0,0 STARLINK-4756,1 53826U 22114J   24035.55402484  .00000819  00000-0  69567-4 0  9995,2 53826  53.2166 134.4036 0001385  98.3162 261.7987 15.08842843 77474,6917.872,95.437,540.695,538.779,0.0
53826.0,STARLINK-4756,PAYLOAD,2024-02-05 11:33:12,15.08835301,0.0001731,53.2183,130.2445,110.2363,249.8815,3.9146e-05,3.35e-06,0.0,0 STARLINK-4756,1 53826U 22114J   24036.48139316  .00000335  00000-0  39146-4 0  9992,2 53826  53.2183 130.2445 0001731 110.2363 249.8815 15.08835301 77077,6917.895,95.438,540.957,538.562,0.0
53826.0,STARLINK-4756,PAYLOAD,2024-02-05 13:08:35,15.08840166,0.0001518,53.2172,129.9458,98.415,261.7014,6.5295e-05,7.51e-06,0.0,0 STARLINK-4756,1 53826U 22114J   24036.54763104  .00000751  00000-0  65295-4 0  9993,2 53826  53.2172 129.9458 0001518  98.4150 261.7014 15.08840166 77628,6917.88,95.438,540.795,538.695,0.0
53826.0,STARLINK-4756,PAYLOAD,2024-02-06 11:23:58,15.08863108,0.0001788,53.218,125.7853,107.8191,252.2997,-0.00021871,-3.77e-05,0.0,0 STARLINK-4756,1 53826U 22114J   24037.47498575 -.00003770  00000-0 -21871-3 0  9990,2 53826  53.2180 125.7853 0001788 107.8191 252.2997 15.08863108 77221,6917.81,95.436,540.912,538.438,0.0
53826.0,STARLINK-4756,PAYLOAD,2024-02-07 12:50:09,15.08838373,0.0001409,53.2166,121.0231,80.9341,279.1811,-2.8852e-06,-3.34e-06,0.0,0 STARLINK-4756,1 53826U 22114J   24038.53483624 -.00000334  00000-0 -28852-5 0  9998,2 53826  53.2166 121.0231 0001409  80.9341 279.1811 15.08838373 77388,6917.885,95.438,540.725,538.776,0.0
53826.0,STARLINK-4756,PAYLOAD,2024-02-08 04:44:01,15.0879304,0.0001826,53.217,118.0497,83.7369,276.3831,0.00047397,7.254e-05,0.0,0 STARLINK-4756,1 53826U 22114J   24039.19724183  .00007254  00000-0  47397-3 0  9998,2 53826  53.2170 118.0497 0001826  83.7369 276.3831 15.08793040 77480,6918.024,95.441,541.152,538.626,0.0
53826.0,STARLINK-4756,PAYLOAD,2024-02-08 11:05:33,15.08848094,0.000161,53.217,116.8613,73.9317,286.1853,-8.9457e-05,-1.712e-05,0.0,0 STARLINK-4756,1 53826U 22114J   24039.46219700 -.00001712  00000-0 -89457-4 0  9991,2 53826  53.2170 116.8613 0001610  73.9317 286.1853 15.08848094 77529,6917.856,95.437,540.834,538.607,0.0
53826.0,STARLINK-4756,PAYLOAD,2024-02-08 12:40:56,15.08848554,0.0001732,53.2181,116.5656,80.5053,279.6135,-4.6329e-05,-1.026e-05,0.0,0 STARLINK-4756,1 53826U 22114J   24039.52843428 -.00001026  00000-0 -46329-4 0  9997,2 53826  53.2181 116.5656 0001732  80.5053 279.6135 15.08848554 78073,6917.854,95.437,540.917,538.521,0.0
53826.0,STARLINK-4756,PAYLOAD,2024-02-09 10:56:21,15.08834554,0.000174,53.2173,112.4016,76.8859,283.2328,8.3712e-05,1.044e-05,0.0,0 STARLINK-4756,1 53826U 22114J   24040.45580045  .00001044  00000-0  83712-4 0  9999,2 53826  53.2173 112.4016 0001740  76.8859 283.2328 15.08834554 77675,6917.897,95.438,540.966,538.558,0.0
53826.0,STARLINK-4756,PAYLOAD,2024-02-10 10:47:08,15.08836833,0.0001753,53.2175,107.9418,78.556,281.5629,8.2228e-05,1.021e-05,0.0,0 STARLINK-4756,1 53826U 22114J   24041.44940058  .00001021  00000-0  82228-4 0  9999,2 53826  53.2175 107.9418 0001753  78.5560 281.5629 15.08836833 78368,6917.89,95.438,540.968,538.542,0.0
53826.0,STARLINK-4756,PAYLOAD,2024-02-11 04:16:22,15.08840207,0.0001693,53.2176,104.6699,91.5028,268.6159,3.5785e-05,2.82e-06,0.0,0 STARLINK-4756,1 53826U 22114J   24042.17803915  .00000282  00000-0  35785-4 0  9994,2 53826  53.2176 104.6699 0001693  91.5028 268.6159 15.08840207 77937,6917.88,95.438,540.916,538.574,0.0
53826.0,STARLINK-4756,PAYLOAD,2024-02-11 10:37:54,15.08842024,0.000169,53.2176,103.4806,90.5131,269.6055,4.8597e-05,4.85e-06,0.0,0 STARLINK-4756,1 53826U 22114J   24042.44299734  .00000485  00000-0  48597-4 0  9992,2 53826  53.2176 103.4806 0001690  90.5131 269.6055 15.08842024 78515,6917.874,95.437,540.908,538.57,0.0
53826.0,STARLINK-4756,PAYLOAD,2024-02-12 10:28:41,15.08844896,0.0001746,53.2179,99.0209,94.6559,265.4632,7.8233e-05,9.57e-06,0.0,0 STARLINK-4756,1 53826U 22114J   24043.43659337  .00000957  00000-0  78233-4 0  9995,2 53826  53.2179  99.0209 0001746  94.6559 265.4632 15.08844896 78127,6917.865,95.437,540.938,538.523,0.0
53826.0,STARLINK-4756,PAYLOAD,2024-02-13 03:57:57,15.0883263,0.0001698,53.2184,95.7503,92.3154,267.8033,-3.9326e-05,-9.14e-06,0.0,0 STARLINK-4756,1 53826U 22114J   24044.16524648 -.00000914  00000-0 -39326-4 0  9997,2 53826  53.2184  95.7503 0001698  92.3154 267.8033 15.08832630 78231,6917.903,95.438,540.943,538.593,0.0
53826.0,STARLINK-4756,PAYLOAD,2024-02-13 10:19:29,15.08834739,0.0001625,53.2183,94.5609,101.874,258.2434,-1.7615e-05,-5.68e-06,0.0,0 STARLINK-4756,1 53826U 22114J   24044.43020538 -.00000568  00000-0 -17615-4 0  9998,2 53826  53.2183  94.5609 0001625 101.8740 258.2434 15.08834739 78816,6917.896,95.438,540.886,538.637,0.0
53826.0,STARLINK-4756,PAYLOAD,2024-02-13 19:51:48,15.08834873,0.0001613,53.2181,92.777,100.2619,259.8555,-2.0661e-05,-6.17e-06,0.0,0 STARLINK-4756,1 53826U 22114J   24044.82764719 -.00000617  00000-0 -20661-4 0  9997,2 53826  53.2181  92.7770 0001613 100.2619 259.8555 15.08834873 78874,6917.896,95.438,540.877,538.645,0.0
53826.0,STARLINK-4756,PAYLOAD,2024-02-14 10:10:17,15.08834048,0.0001735,53.2182,90.1012,109.0791,251.0389,-1.9702e-05,-6.02e-06,0.0,0 STARLINK-4756,1 53826U 22114J   24045.42380991 -.00000602  00000-0 -19702-4 0  9998,2 53826  53.2182  90.1012 0001735 109.0791 251.0389 15.08834048 78423,6917.899,95.438,540.964,538.563,0.0
